FLOCK 4Q-30             
1 58286U 23174AG  24193.64948164  .00009802  00000+0  44722-3 0  9997
2 58286  97.4603 268.2710 0012373 147.5808 212.6190 15.20755062 37436
PELICAN-3001            
1 58296U 23174AS  24194.17363680  .00005444  00000+0  25660-3 0  9999
2 58296  97.4572 268.5139 0012981 138.5883 221.6339 15.19840608 37500
FLOCK 4Q-25             
1 58303U 23174AZ  24194.17861789  .00010625  00000+0  48853-3 0  9997
2 58303  97.4510 268.4934 0011522 131.7839 228.4382 15.20476219 37518
FLOCK 4Q-29             
1 58304U 23174BA  24193.21200347  .00010354  00000+0  47787-3 0  9993
2 58304  97.4606 267.7876 0012654 137.8426 222.3785 15.20342517 37364
FLOCK 4Q-22             
1 58306U 23174BC  24193.65621407  .00010594  00000+0  48515-3 0  9993
2 58306  97.4525 267.9998 0011688 134.9790 225.2395 15.20615128 37439
FLOCK 4Q-23             
1 58307U 23174BD  24193.71635699  .00009821  00000+0  45212-3 0  9991
2 58307  97.4597 268.3109 0013104 137.3296 222.8959 15.20436978 37445
FLOCK 4Q-33             
1 58308U 23174BE  24193.66747190  .00010410  00000+0  47585-3 0  9997
2 58308  97.4537 268.1687 0012521 135.0350 225.1902 15.20673060 37446
FLOCK 4Q-35             
1 58309U 23174BF  24193.64495854  .00010971  00000+0  50139-3 0  9994
2 58309  97.4581 268.2148 0013063 141.0101 219.2078 15.20658324 37435
FLOCK 4Q-32             
1 58310U 23174BG  24194.21071984  .00024955  00000+0  95929-3 0  9997
2 58310  97.4591 269.7734 0011495 127.9123 232.3156 15.26345597 37589
FLOCK 4Q-14             
1 58311U 23174BH  24193.21195137  .00009995  00000+0  46454-3 0  9990
2 58311  97.4521 267.5196 0011550 133.7768 226.4424 15.20119631 37363
FLOCK 4Q-20             
1 58313U 23174BK  24194.18104521  .00011647  00000+0  52600-3 0  9993
2 58313  97.4587 268.8838 0013296 134.9060 225.3257 15.21048899 37529
FLOCK 4Q-24             
1 58314U 23174BL  24193.65293474  .00010548  00000+0  48408-3 0  9991
2 58314  97.4527 268.0208 0012283 132.8348 227.3921 15.20536098 37430
FLOCK 4Q-6              
1 58315U 23174BM  24194.20620034  .00023886  00000+0  10950-2 0  9999
2 58315  97.4520 268.4876 0011502 130.4824 229.7415 15.20393904 37515
FLOCK 4Q-34             
1 58316U 23174BN  24193.16905826  .00010784  00000+0  49302-3 0  9996
2 58316  97.4540 267.6379 0012813 136.6088 223.6159 15.20653976 37362
FLOCK 4Q-7              
1 58318U 23174BQ  24194.17726987  .00011449  00000+0  52679-3 0  9999
2 58318  97.4591 268.7520 0013198 131.9796 228.2566 15.20414624 37516
FLOCK 4Q-15             
1 58319U 23174BR  24194.18311469  .00010820  00000+0  49063-3 0  9991
2 58319  97.4584 268.8763 0013132 130.6783 229.5596 15.20931040 37523
FLOCK 4Q-2              
1 58320U 23174BS  24194.17659207  .00009988  00000+0  46182-3 0  9999
2 58320  97.4537 268.5778 0012317 129.8205 230.4116 15.20290298 37510
FLOCK 4Q-9              
1 58322U 23174BU  24193.16986974  .00008719  00000+0  40138-3 0  9999
2 58322  97.4552 267.6724 0012562 133.4285 226.7998 15.20479530 37368
FLOCK 4Q-10             
1 58324U 23174BW  24193.21360918  .00010040  00000+0  45797-3 0  9997
2 58324  97.4557 267.7822 0012236 132.0646 228.1632 15.20758343 37373
FLOCK 4Q-4              
1 58327U 23174BZ  24193.17177868  .00007498  00000+0  34816-3 0  9998
2 58327  97.4527 267.4415 0011027 150.4889 209.6971 15.20247989 37355
FLOCK 4Q-13             
1 58328U 23174CA  24193.25043415  .00009211  00000+0  42619-3 0  9993
2 58328  97.4602 267.7004 0012518 151.9392 208.2521 15.20289154 37365
FLOCK 4Q-21             
1 58329U 23174CB  24194.19014457  .00011277  00000+0  51507-3 0  9993
2 58329  97.4590 268.7349 0012069 148.7828 211.4127 15.20684181 37518
